1 43013U 17073A   25348.32962775  .00000123  00000+0  79065-4 0  9998
2 43013  98.7600 284.6090 0002147  85.0161 275.1261 14.19526269418245
